CCSDS_OMM_VERS = 2.0
CREATION_DATE  = 
ORIGINATOR     = 

OBJECT_NAME    = CYGNUS NG-23
OBJECT_ID      = 2025-208A
CENTER_NAME    = EARTH
REF_FRAME      = TEME
TIME_SYSTEM    = UTC
MEAN_ELEMENT_THEORY = SGP/SGP4

EPOCH          = 2026-01-03T05:02:41.800128
MEAN_MOTION    = 15.49059586
ECCENTRICITY   = .00075493
INCLINATION    = 51.6329
RA_OF_ASC_NODE = 36.1624
ARG_OF_PERICENTER = 334.7101
MEAN_ANOMALY   = 25.3517

EPHEMERIS_TYPE = 0
CLASSIFICATION_TYPE = U
NORAD_CAT_ID   = 65616
ELEMENT_SET_NO = 999
REV_AT_EPOCH   = 22
BSTAR          = .28953765E-3
MEAN_MOTION_DOT = .15578E-3
MEAN_MOTION_DDOT = 0

CCSDS_OMM_VERS = 2.0
CREATION_DATE  = 
ORIGINATOR     = 

OBJECT_NAME    = DRAGONFLY
OBJECT_ID      = 1998-067XH
CENTER_NAME    = EARTH
REF_FRAME      = TEME
TIME_SYSTEM    = UTC
MEAN_ELEMENT_THEORY = SGP/SGP4

EPOCH          = 2026-01-03T10:11:05.803872
MEAN_MOTION    = 15.81556255
ECCENTRICITY   = .0008745
INCLINATION    = 51.6230
RA_OF_ASC_NODE = 24.0476
ARG_OF_PERICENTER = 42.2754
MEAN_ANOMALY   = 317.8921

EPHEMERIS_TYPE = 0
CLASSIFICATION_TYPE = U
NORAD_CAT_ID   = 65729
ELEMENT_SET_NO = 999
REV_AT_EPOCH   = 1658
BSTAR          = .1815E-2
MEAN_MOTION_DOT = .387428E-2
MEAN_MOTION_DDOT = 0

CCSDS_OMM_VERS = 2.0
CREATION_DATE  = 
ORIGINATOR     = 

OBJECT_NAME    = 1998-067XK
OBJECT_ID      = 1998-067XK
CENTER_NAME    = EARTH
REF_FRAME      = TEME
TIME_SYSTEM    = UTC
MEAN_ELEMENT_THEORY = SGP/SGP4

EPOCH          = 2026-01-03T11:13:21.337248
MEAN_MOTION    = 15.70784398
ECCENTRICITY   = .0005314
INCLINATION    = 51.6285
RA_OF_ASC_NODE = 26.6310
ARG_OF_PERICENTER = 17.8507
MEAN_ANOMALY   = 342.2676

EPHEMERIS_TYPE = 0
CLASSIFICATION_TYPE = U
NORAD_CAT_ID   = 65731
ELEMENT_SET_NO = 999
REV_AT_EPOCH   = 1655
BSTAR          = .14011E-2
MEAN_MOTION_DOT = .181227E-2
MEAN_MOTION_DDOT = 0

CCSDS_OMM_VERS = 2.0
CREATION_DATE  = 
ORIGINATOR     = 

OBJECT_NAME    = RSP-03
OBJECT_ID      = 1998-067XL
CENTER_NAME    = EARTH
REF_FRAME      = TEME
TIME_SYSTEM    = UTC
MEAN_ELEMENT_THEORY = SGP/SGP4

EPOCH          = 2026-01-03T07:04:52.270752
MEAN_MOTION    = 15.75467795
ECCENTRICITY   = .0006444
INCLINATION    = 51.6255
RA_OF_ASC_NODE = 26.2072
ARG_OF_PERICENTER = 23.9890
MEAN_ANOMALY   = 336.1408

EPHEMERIS_TYPE = 0
CLASSIFICATION_TYPE = U
NORAD_CAT_ID   = 65732
ELEMENT_SET_NO = 999
REV_AT_EPOCH   = 1655
BSTAR          = .15841E-2
MEAN_MOTION_DOT = .252732E-2
MEAN_MOTION_DDOT = 0

CCSDS_OMM_VERS = 2.0
CREATION_DATE  = 
ORIGINATOR     = 

OBJECT_NAME    = GHS-01
OBJECT_ID      = 1998-067XM
CENTER_NAME    = EARTH
REF_FRAME      = TEME
TIME_SYSTEM    = UTC
MEAN_ELEMENT_THEORY = SGP/SGP4

EPOCH          = 2026-01-02T10:28:56.152992
MEAN_MOTION    = 15.87073258
ECCENTRICITY   = .00096481
INCLINATION    = 51.6261
RA_OF_ASC_NODE = 27.9593
ARG_OF_PERICENTER = 41.4531
MEAN_ANOMALY   = 318.7204

EPHEMERIS_TYPE = 0
CLASSIFICATION_TYPE = U
NORAD_CAT_ID   = 65733
ELEMENT_SET_NO = 999
REV_AT_EPOCH   = 1645
BSTAR          = .18981522E-2
MEAN_MOTION_DOT = .536437E-2
MEAN_MOTION_DDOT = 0

CCSDS_OMM_VERS = 2.0
CREATION_DATE  = 
ORIGINATOR     = 

OBJECT_NAME    = YOTSUBA-KULOVER
OBJECT_ID      = 1998-067XN
CENTER_NAME    = EARTH
REF_FRAME      = TEME
TIME_SYSTEM    = UTC
MEAN_ELEMENT_THEORY = SGP/SGP4

EPOCH          = 2026-01-03T06:53:48.578784
MEAN_MOTION    = 15.62875396
ECCENTRICITY   = .00035339
INCLINATION    = 51.6291
RA_OF_ASC_NODE = 31.4319
ARG_OF_PERICENTER = 46.8072
MEAN_ANOMALY   = 313.3217

EPHEMERIS_TYPE = 0
CLASSIFICATION_TYPE = U
NORAD_CAT_ID   = 65941
ELEMENT_SET_NO = 999
REV_AT_EPOCH   = 1322
BSTAR          = .13154417E-2
MEAN_MOTION_DOT = .122515E-2
MEAN_MOTION_DDOT = 0

CCSDS_OMM_VERS = 2.0
CREATION_DATE  = 
ORIGINATOR     = 

OBJECT_NAME    = BOTAN
OBJECT_ID      = 1998-067XP
CENTER_NAME    = EARTH
REF_FRAME      = TEME
TIME_SYSTEM    = UTC
MEAN_ELEMENT_THEORY = SGP/SGP4

EPOCH          = 2026-01-03T02:32:54.698496
MEAN_MOTION    = 15.68280980
ECCENTRICITY   = .0004417
INCLINATION    = 51.6272
RA_OF_ASC_NODE = 30.9665
ARG_OF_PERICENTER = 35.2336
MEAN_ANOMALY   = 324.8952

EPHEMERIS_TYPE = 0
CLASSIFICATION_TYPE = U
NORAD_CAT_ID   = 65942
ELEMENT_SET_NO = 999
REV_AT_EPOCH   = 1321
BSTAR          = .15860644E-2
MEAN_MOTION_DOT = .185038E-2
MEAN_MOTION_DDOT = 0

CCSDS_OMM_VERS = 2.0
CREATION_DATE  = 
ORIGINATOR     = 

OBJECT_NAME    = E-KAGAKU-1
OBJECT_ID      = 1998-067XQ
CENTER_NAME    = EARTH
REF_FRAME      = TEME
TIME_SYSTEM    = UTC
MEAN_ELEMENT_THEORY = SGP/SGP4

EPOCH          = 2026-01-03T02:17:28.101696
MEAN_MOTION    = 15.62853332
ECCENTRICITY   = .00021793
INCLINATION    = 51.6298
RA_OF_ASC_NODE = 32.4065
ARG_OF_PERICENTER = 34.9595
MEAN_ANOMALY   = 325.1542

EPHEMERIS_TYPE = 0
CLASSIFICATION_TYPE = U
NORAD_CAT_ID   = 65943
ELEMENT_SET_NO = 999
REV_AT_EPOCH   = 1319
BSTAR          = .12174142E-2
MEAN_MOTION_DOT = .113099E-2
MEAN_MOTION_DDOT = 0

CCSDS_OMM_VERS = 2.0
CREATION_DATE  = 
ORIGINATOR     = 

OBJECT_NAME    = HRC MONOBLOCK CAMERA
OBJECT_ID      = 1998-067XR
CENTER_NAME    = EARTH
REF_FRAME      = TEME
TIME_SYSTEM    = UTC
MEAN_ELEMENT_THEORY = SGP/SGP4

EPOCH          = 2026-01-03T08:58:59.680704
MEAN_MOTION    = 15.55820742
ECCENTRICITY   = .0001447
INCLINATION    = 51.6307
RA_OF_ASC_NODE = 33.5099
ARG_OF_PERICENTER = 302.8952
MEAN_ANOMALY   = 57.1900

EPHEMERIS_TYPE = 0
CLASSIFICATION_TYPE = U
NORAD_CAT_ID   = 66052
ELEMENT_SET_NO = 999
REV_AT_EPOCH   = 1220
BSTAR          = .74297E-3
MEAN_MOTION_DOT = .52191E-3
MEAN_MOTION_DDOT = 0

CCSDS_OMM_VERS = 2.0
CREATION_DATE  = 
ORIGINATOR     = 

OBJECT_NAME    = HTV-X1
OBJECT_ID      = 2025-241A
CENTER_NAME    = EARTH
REF_FRAME      = TEME
TIME_SYSTEM    = UTC
MEAN_ELEMENT_THEORY = SGP/SGP4

EPOCH          = 2026-01-03T05:02:41.800128
MEAN_MOTION    = 15.49059586
ECCENTRICITY   = .00075493
INCLINATION    = 51.6329
RA_OF_ASC_NODE = 36.1624
ARG_OF_PERICENTER = 334.7101
MEAN_ANOMALY   = 25.3517

EPHEMERIS_TYPE = 0
CLASSIFICATION_TYPE = U
NORAD_CAT_ID   = 66174
ELEMENT_SET_NO = 999
REV_AT_EPOCH   = 51
BSTAR          = .28953765E-3
MEAN_MOTION_DOT = .15578E-3
MEAN_MOTION_DDOT = 0

CCSDS_OMM_VERS = 2.0
CREATION_DATE  = 
ORIGINATOR     = 

OBJECT_NAME    = SZ-21 MODULE
OBJECT_ID      = 2025-246C
CENTER_NAME    = EARTH
REF_FRAME      = TEME
TIME_SYSTEM    = UTC
MEAN_ELEMENT_THEORY = SGP/SGP4

EPOCH          = 2026-01-03T00:10:39.879264
MEAN_MOTION    = 15.63793066
ECCENTRICITY   = .00023233
INCLINATION    = 41.4755
RA_OF_ASC_NODE = 246.1963
ARG_OF_PERICENTER = 25.4667
MEAN_ANOMALY   = 334.6288

EPHEMERIS_TYPE = 0
CLASSIFICATION_TYPE = U
NORAD_CAT_ID   = 66515
ELEMENT_SET_NO = 999
REV_AT_EPOCH   = 777
BSTAR          = .42307771E-3
MEAN_MOTION_DOT = .40642E-3
MEAN_MOTION_DDOT = 0

CCSDS_OMM_VERS = 2.0
CREATION_DATE  = 
ORIGINATOR     = 

OBJECT_NAME    = SHENZHOU-22
OBJECT_ID      = 2025-272A
CENTER_NAME    = EARTH
REF_FRAME      = TEME
TIME_SYSTEM    = UTC
MEAN_ELEMENT_THEORY = SGP/SGP4

EPOCH          = 2026-01-03T02:27:16.953984
MEAN_MOTION    = 15.60118747
ECCENTRICITY   = .00103492
INCLINATION    = 41.4661
RA_OF_ASC_NODE = 246.9310
ARG_OF_PERICENTER = 209.1942
MEAN_ANOMALY   = 150.8319

EPHEMERIS_TYPE = 0
CLASSIFICATION_TYPE = U
NORAD_CAT_ID   = 66645
ELEMENT_SET_NO = 999
REV_AT_EPOCH   = 26733
BSTAR          = .38473373E-3
MEAN_MOTION_DOT = .32013E-3
MEAN_MOTION_DDOT = 0

