CYGNUS NG-23            
1 65616U 25208A   26003.21020602  .00015578  00000+0  28954-3 0  9991
2 65616  51.6329  36.1624 0007549 334.7101  25.3517 15.49059586   227
DRAGONFLY               
1 65729U 98067XH  26003.42437273  .00387428  00000+0  18150-2 0  9990
2 65729  51.6230  24.0476 0008745  42.2754 317.8921 15.81556255 16583
1998-067XK              
1 65731U 98067XK  26003.46760807  .00181227  00000+0  14011-2 0  9990
2 65731  51.6285  26.6310 0005314  17.8507 342.2676 15.70784398 16559
RSP-03                  
1 65732U 98067XL  26003.29504943  .00252732  00000+0  15841-2 0  9991
2 65732  51.6255  26.2072 0006444  23.9890 336.1408 15.75467795 16555
GHS-01                  
1 65733U 98067XM  26002.43676103  .00536437  00000+0  18982-2 0  9991
2 65733  51.6261  27.9593 0009648  41.4531 318.7204 15.87073258 16454
YOTSUBA-KULOVER         
1 65941U 98067XN  26003.28736781  .00122515  00000+0  13154-2 0  9999
2 65941  51.6291  31.4319 0003533  46.8072 313.3217 15.62875396 13223
BOTAN                   
1 65942U 98067XP  26003.10618864  .00185038  00000+0  15861-2 0  9998
2 65942  51.6272  30.9665 0004417  35.2336 324.8952 15.68280980 13215
E-KAGAKU-1              
1 65943U 98067XQ  26003.09546414  .00113099  00000+0  12174-2 0  9990
2 65943  51.6298  32.4065 0002179  34.9595 325.1542 15.62853332 13198
HRC MONOBLOCK CAMERA    
1 66052U 98067XR  26003.37430186  .00052191  00000+0  74297-3 0  9991
2 66052  51.6307  33.5099 0001447 302.8952  57.1900 15.55820742 12203
HTV-X1                  
1 66174U 25241A   26003.21020602  .00015578  00000+0  28954-3 0  9998
2 66174  51.6329  36.1624 0007549 334.7101  25.3517 15.49059586   519
SZ-21 MODULE            
1 66515U 25246C   26003.00740601  .00040642  00000+0  42308-3 0  9996
2 66515  41.4755 246.1963 0002323  25.4667 334.6288 15.63793066  7773
SHENZHOU-22             
1 66645U 25272A   26003.10227956  .00032013  00000+0  38473-3 0  9994
2 66645  41.4661 246.9310 0010349 209.1942 150.8319 15.60118747267338
